{
"type": "FeatureCollection",
"name": "extra_limit.geojson",
"crs": { "type": "name", "properties": { "name": "urn:ogc:def:crs:OGC:1.3:CRS84" } },
"features": [
{ "type": "Feature", "properties": { "Count": 1, "year": 1985 }, "geometry": { "type": "Point", "coordinates": [ -122.34092795578556, 37.124901493875207 ] } },
{ "type": "Feature", "properties": { "Count": 5, "year": 1985 }, "geometry": { "type": "Point", "coordinates": [ -122.320419445940999, 37.112427669782122 ] } },
{ "type": "Feature", "properties": { "Count": 1, "year": 1985 }, "geometry": { "type": "Point", "coordinates": [ -122.236905767531894, 37.041201302874171 ] } },
{ "type": "Feature", "properties": { "Count": 2, "year": 1986 }, "geometry": { "type": "Point", "coordinates": [ -122.27710597195113, 37.086370003966628 ] } },
{ "type": "Feature", "properties": { "Count": 1, "year": 1986 }, "geometry": { "type": "Point", "coordinates": [ -122.273542952810104, 37.082650763127127 ] } },
{ "type": "Feature", "properties": { "Count": 1, "year": 1986 }, "geometry": { "type": "Point", "coordinates": [ -122.265341170287641, 37.072175864165978 ] } },
{ "type": "Feature", "properties": { "Count": 3, "year": 1986 }, "geometry": { "type": "Point", "coordinates": [ -120.482464942287422, 34.476868805538025 ] } },
{ "type": "Feature", "properties": { "Count": 7, "year": 1987 }, "geometry": { "type": "Point", "coordinates": [ -122.339531828382036, 37.11300375174504 ] } },
{ "type": "Feature", "properties": { "Count": 8, "year": 1987 }, "geometry": { "type": "Point", "coordinates": [ -122.330162597505677, 37.109238704736505 ] } },
{ "type": "Feature", "properties": { "Count": 16, "year": 1987 }, "geometry": { "type": "Point", "coordinates": [ -122.325142246452785, 37.110478429213572 ] } },
{ "type": "Feature", "properties": { "Count": 1, "year": 1987 }, "geometry": { "type": "Point", "coordinates": [ -120.673561016018269, 34.904293937668896 ] } },
{ "type": "Feature", "properties": { "Count": 1, "year": 1987 }, "geometry": { "type": "Point", "coordinates": [ -120.640964890852899, 34.562473174768726 ] } },
{ "type": "Feature", "properties": { "Count": 1, "year": 1987 }, "geometry": { "type": "Point", "coordinates": [ -120.482464942287422, 34.476868805538025 ] } },
{ "type": "Feature", "properties": { "Count": 1, "year": 1987 }, "geometry": { "type": "Point", "coordinates": [ -120.43829552736095, 34.444868527993265 ] } },
{ "type": "Feature", "properties": { "Count": 1, "year": 1988 }, "geometry": { "type": "Point", "coordinates": [ -120.637570825292116, 34.746998080081077 ] } },
{ "type": "Feature", "properties": { "Count": 1, "year": 1989 }, "geometry": { "type": "Point", "coordinates": [ -120.637479991106801, 35.070101534523239 ] } },
{ "type": "Feature", "properties": { "Count": 2, "year": 1989 }, "geometry": { "type": "Point", "coordinates": [ -120.637731810483032, 35.065577328386006 ] } },
{ "type": "Feature", "properties": { "Count": 4, "year": 1989 }, "geometry": { "type": "Point", "coordinates": [ -120.638235409479776, 35.061186634509696 ] } },
{ "type": "Feature", "properties": { "Count": 1, "year": 1989 }, "geometry": { "type": "Point", "coordinates": [ -120.638304113498819, 35.056906568406049 ] } },
{ "type": "Feature", "properties": { "Count": 2, "year": 1989 }, "geometry": { "type": "Point", "coordinates": [ -120.639791980324674, 35.048540977073749 ] } },
{ "type": "Feature", "properties": { "Count": 2, "year": 1989 }, "geometry": { "type": "Point", "coordinates": [ -120.640417654959947, 35.044138837961867 ] } },
{ "type": "Feature", "properties": { "Count": 1, "year": 1989 }, "geometry": { "type": "Point", "coordinates": [ -120.6567302269099, 34.972350722380746 ] } },
{ "type": "Feature", "properties": { "Count": 2, "year": 1989 }, "geometry": { "type": "Point", "coordinates": [ -120.510863219473421, 34.51131847590981 ] } },
{ "type": "Feature", "properties": { "Count": 4, "year": 1989 }, "geometry": { "type": "Point", "coordinates": [ -120.501760926023763, 34.496994481375552 ] } },
{ "type": "Feature", "properties": { "Count": 1, "year": 1989 }, "geometry": { "type": "Point", "coordinates": [ -120.479237440016661, 34.46912136553037 ] } },
{ "type": "Feature", "properties": { "Count": 1, "year": 1990 }, "geometry": { "type": "Point", "coordinates": [ -120.661704711082436, 34.955108593957569 ] } },
{ "type": "Feature", "properties": { "Count": 7, "year": 1990 }, "geometry": { "type": "Point", "coordinates": [ -120.623768584158299, 34.730286230484168 ] } },
{ "type": "Feature", "properties": { "Count": 1, "year": 1990 }, "geometry": { "type": "Point", "coordinates": [ -120.605700403639389, 34.550582872846292 ] } },
{ "type": "Feature", "properties": { "Count": 1, "year": 1990 }, "geometry": { "type": "Point", "coordinates": [ -120.48969043825349, 34.482956841180986 ] } },
{ "type": "Feature", "properties": { "Count": 1, "year": 1990 }, "geometry": { "type": "Point", "coordinates": [ -120.480549816546926, 34.473191541692195 ] } },
{ "type": "Feature", "properties": { "Count": 3, "year": 1991 }, "geometry": { "type": "Point", "coordinates": [ -120.485471126655156, 34.480343881851809 ] } },
{ "type": "Feature", "properties": { "Count": 1, "year": 1991 }, "geometry": { "type": "Point", "coordinates": [ -120.400047340155922, 34.450846469312864 ] } },
{ "type": "Feature", "properties": { "Count": 1, "year": 1993 }, "geometry": { "type": "Point", "coordinates": [ -122.409128697540098, 37.344081857285602 ] } },
{ "type": "Feature", "properties": { "Count": 2, "year": 1993 }, "geometry": { "type": "Point", "coordinates": [ -122.407626385674561, 37.192515672789739 ] } },
{ "type": "Feature", "properties": { "Count": 2, "year": 1993 }, "geometry": { "type": "Point", "coordinates": [ -122.381715950989644, 37.177970434698523 ] } },
{ "type": "Feature", "properties": { "Count": 3, "year": 1993 }, "geometry": { "type": "Point", "coordinates": [ -122.37758829455916, 37.175117088338339 ] } },
{ "type": "Feature", "properties": { "Count": 1, "year": 1993 }, "geometry": { "type": "Point", "coordinates": [ -120.534667926966975, 34.531517085937118 ] } },
{ "type": "Feature", "properties": { "Count": 1, "year": 1993 }, "geometry": { "type": "Point", "coordinates": [ -120.413834375205496, 34.448065455892575 ] } },
{ "type": "Feature", "properties": { "Count": 1, "year": 1993 }, "geometry": { "type": "Point", "coordinates": [ -120.35526038820808, 34.454718822413312 ] } },
{ "type": "Feature", "properties": { "Count": 1, "year": 1994 }, "geometry": { "type": "Point", "coordinates": [ -122.413623178155632, 37.222040762207847 ] } },
{ "type": "Feature", "properties": { "Count": 2, "year": 1994 }, "geometry": { "type": "Point", "coordinates": [ -122.381715950989644, 37.177970434698523 ] } },
{ "type": "Feature", "properties": { "Count": 2, "year": 1994 }, "geometry": { "type": "Point", "coordinates": [ -120.636952057721885, 34.624216704690404 ] } },
{ "type": "Feature", "properties": { "Count": 1, "year": 1994 }, "geometry": { "type": "Point", "coordinates": [ -120.478459147613819, 34.464890969285626 ] } },
{ "type": "Feature", "properties": { "Count": 2, "year": 1995 }, "geometry": { "type": "Point", "coordinates": [ -122.381715950989644, 37.177970434698523 ] } },
{ "type": "Feature", "properties": { "Count": 1, "year": 1995 }, "geometry": { "type": "Point", "coordinates": [ -120.652043297695485, 34.578033060335713 ] } },
{ "type": "Feature", "properties": { "Count": 1, "year": 1995 }, "geometry": { "type": "Point", "coordinates": [ -120.600763999177531, 34.551101646736825 ] } },
{ "type": "Feature", "properties": { "Count": 2, "year": 1995 }, "geometry": { "type": "Point", "coordinates": [ -120.595705518664445, 34.551444947367756 ] } },
{ "type": "Feature", "properties": { "Count": 1, "year": 1995 }, "geometry": { "type": "Point", "coordinates": [ -120.55351328114503, 34.537921929978218 ] } },
{ "type": "Feature", "properties": { "Count": 1, "year": 1995 }, "geometry": { "type": "Point", "coordinates": [ -120.478459147613819, 34.464890969285626 ] } },
{ "type": "Feature", "properties": { "Count": 1, "year": 1995 }, "geometry": { "type": "Point", "coordinates": [ -120.413834375205496, 34.448065455892575 ] } },
{ "type": "Feature", "properties": { "Count": 1, "year": 1995 }, "geometry": { "type": "Point", "coordinates": [ -120.394798030934211, 34.451147884474864 ] } },
{ "type": "Feature", "properties": { "Count": 1, "year": 1996 }, "geometry": { "type": "Point", "coordinates": [ -120.46194029744079, 34.441606762698768 ] } },
{ "type": "Feature", "properties": { "Count": 1, "year": 1997 }, "geometry": { "type": "Point", "coordinates": [ -120.635395625773427, 34.628382275151338 ] } },
{ "type": "Feature", "properties": { "Count": 1, "year": 1998 }, "geometry": { "type": "Point", "coordinates": [ -122.424265951199544, 37.389148020387786 ] } },
{ "type": "Feature", "properties": { "Count": 1, "year": 1998 }, "geometry": { "type": "Point", "coordinates": [ -122.414003987346504, 37.373645251615507 ] } },
{ "type": "Feature", "properties": { "Count": 3, "year": 1998 }, "geometry": { "type": "Point", "coordinates": [ -122.409128697540098, 37.344081857285602 ] } },
{ "type": "Feature", "properties": { "Count": 1, "year": 1998 }, "geometry": { "type": "Point", "coordinates": [ -122.412875088365467, 37.301003347998382 ] } },
{ "type": "Feature", "properties": { "Count": 1, "year": 1998 }, "geometry": { "type": "Point", "coordinates": [ -122.381715950989644, 37.177970434698523 ] } },
{ "type": "Feature", "properties": { "Count": 1, "year": 1998 }, "geometry": { "type": "Point", "coordinates": [ -120.64376527809074, 34.608824697840795 ] } },
{ "type": "Feature", "properties": { "Count": 1, "year": 1998 }, "geometry": { "type": "Point", "coordinates": [ -120.645451415753769, 34.604949041020895 ] } },
{ "type": "Feature", "properties": { "Count": 1, "year": 1998 }, "geometry": { "type": "Point", "coordinates": [ -120.600763999177531, 34.551101646736825 ] } },
{ "type": "Feature", "properties": { "Count": 11, "year": 1998 }, "geometry": { "type": "Point", "coordinates": [ -120.563683667862961, 34.540966044637528 ] } },
{ "type": "Feature", "properties": { "Count": 1, "year": 1998 }, "geometry": { "type": "Point", "coordinates": [ -120.559052437426118, 34.538806945098351 ] } },
{ "type": "Feature", "properties": { "Count": 1, "year": 1998 }, "geometry": { "type": "Point", "coordinates": [ -120.519851033250646, 34.521614226524669 ] } },
{ "type": "Feature", "properties": { "Count": 5, "year": 1998 }, "geometry": { "type": "Point", "coordinates": [ -120.510863219473421, 34.51131847590981 ] } },
{ "type": "Feature", "properties": { "Count": 2, "year": 1998 }, "geometry": { "type": "Point", "coordinates": [ -120.501760926023763, 34.496994481375552 ] } },
{ "type": "Feature", "properties": { "Count": 1, "year": 1998 }, "geometry": { "type": "Point", "coordinates": [ -120.466312209764254, 34.44347587317705 ] } },
{ "type": "Feature", "properties": { "Count": 1, "year": 1998 }, "geometry": { "type": "Point", "coordinates": [ -120.46194029744079, 34.441606762698768 ] } },
{ "type": "Feature", "properties": { "Count": 12, "year": 1998 }, "geometry": { "type": "Point", "coordinates": [ -120.442781837941354, 34.443224377918057 ] } },
{ "type": "Feature", "properties": { "Count": 1, "year": 1998 }, "geometry": { "type": "Point", "coordinates": [ -120.413834375205496, 34.448065455892575 ] } },
{ "type": "Feature", "properties": { "Count": 67, "year": 1998 }, "geometry": { "type": "Point", "coordinates": [ -120.365636917956238, 34.453700199582627 ] } },
{ "type": "Feature", "properties": { "Count": 2, "year": 1998 }, "geometry": { "type": "Point", "coordinates": [ -120.360448642481671, 34.453677371827837 ] } },
{ "type": "Feature", "properties": { "Count": 2, "year": 1998 }, "geometry": { "type": "Point", "coordinates": [ -120.336071443556293, 34.456702645980968 ] } },
{ "type": "Feature", "properties": { "Count": 2, "year": 1998 }, "geometry": { "type": "Point", "coordinates": [ -120.298365097042335, 34.465144837151492 ] } },
{ "type": "Feature", "properties": { "Count": 1, "year": 1998 }, "geometry": { "type": "Point", "coordinates": [ -120.278786971118151, 34.463870982437697 ] } },
{ "type": "Feature", "properties": { "Count": 3, "year": 1998 }, "geometry": { "type": "Point", "coordinates": [ -119.993557879396207, 34.447803464200135 ] } },
{ "type": "Feature", "properties": { "Count": 1, "year": 1998 }, "geometry": { "type": "Point", "coordinates": [ -119.94273007939033, 34.431363603216042 ] } },
{ "type": "Feature", "properties": { "Count": 1, "year": 1999 }, "geometry": { "type": "Point", "coordinates": [ -122.52057551757629, 37.518769743013095 ] } },
{ "type": "Feature", "properties": { "Count": 2, "year": 1999 }, "geometry": { "type": "Point", "coordinates": [ -122.518538512156283, 37.513818492597395 ] } },
{ "type": "Feature", "properties": { "Count": 1, "year": 1999 }, "geometry": { "type": "Point", "coordinates": [ -122.517264457865636, 37.509706433379122 ] } },
{ "type": "Feature", "properties": { "Count": 16, "year": 1999 }, "geometry": { "type": "Point", "coordinates": [ -122.50763590849985, 37.503935136864797 ] } },
{ "type": "Feature", "properties": { "Count": 1, "year": 1999 }, "geometry": { "type": "Point", "coordinates": [ -122.504729096450149, 37.49984598113469 ] } },
{ "type": "Feature", "properties": { "Count": 1, "year": 1999 }, "geometry": { "type": "Point", "coordinates": [ -120.183751129700781, 34.466225704564529 ] } },
{ "type": "Feature", "properties": { "Count": 1, "year": 1999 }, "geometry": { "type": "Point", "coordinates": [ -120.158100142586733, 34.468041756587432 ] } },
{ "type": "Feature", "properties": { "Count": 2, "year": 1999 }, "geometry": { "type": "Point", "coordinates": [ -120.090569436727918, 34.457186161271927 ] } },
{ "type": "Feature", "properties": { "Count": 3, "year": 1999 }, "geometry": { "type": "Point", "coordinates": [ -120.085251536816628, 34.457071785628798 ] } },
{ "type": "Feature", "properties": { "Count": 3, "year": 1999 }, "geometry": { "type": "Point", "coordinates": [ -120.06343065138438, 34.458677990878741 ] } },
{ "type": "Feature", "properties": { "Count": 1, "year": 1999 }, "geometry": { "type": "Point", "coordinates": [ -120.048339098897316, 34.458010612301329 ] } },
{ "type": "Feature", "properties": { "Count": 1, "year": 1999 }, "geometry": { "type": "Point", "coordinates": [ -119.953457085919169, 34.431412968192795 ] } },
{ "type": "Feature", "properties": { "Count": 1, "year": 1999 }, "geometry": { "type": "Point", "coordinates": [ -119.909892683251513, 34.421961261439989 ] } },
{ "type": "Feature", "properties": { "Count": 1, "year": 1999 }, "geometry": { "type": "Point", "coordinates": [ -119.803957484996531, 34.411873714070111 ] } },
{ "type": "Feature", "properties": { "Count": 3, "year": 1999 }, "geometry": { "type": "Point", "coordinates": [ -119.799326434734866, 34.412823651517137 ] } },
{ "type": "Feature", "properties": { "Count": 1, "year": 1999 }, "geometry": { "type": "Point", "coordinates": [ -119.73505458348842, 34.395338045214523 ] } },
{ "type": "Feature", "properties": { "Count": 1, "year": 1999 }, "geometry": { "type": "Point", "coordinates": [ -119.677838634119027, 34.408989819421009 ] } },
{ "type": "Feature", "properties": { "Count": 1, "year": 1999 }, "geometry": { "type": "Point", "coordinates": [ -119.577902744653159, 34.410971949907314 ] } },
{ "type": "Feature", "properties": { "Count": 1, "year": 1999 }, "geometry": { "type": "Point", "coordinates": [ -119.507585389888561, 34.38267793501371 ] } },
{ "type": "Feature", "properties": { "Count": 1, "year": 1999 }, "geometry": { "type": "Point", "coordinates": [ -119.501954548314004, 34.38218195852388 ] } },
{ "type": "Feature", "properties": { "Count": 1, "year": 2000 }, "geometry": { "type": "Point", "coordinates": [ -122.487035708098233, 37.488470524805038 ] } },
{ "type": "Feature", "properties": { "Count": 1, "year": 2000 }, "geometry": { "type": "Point", "coordinates": [ -120.307917573443817, 34.463103904050271 ] } },
{ "type": "Feature", "properties": { "Count": 1, "year": 2000 }, "geometry": { "type": "Point", "coordinates": [ -120.283929497649211, 34.465251815133371 ] } },
{ "type": "Feature", "properties": { "Count": 1, "year": 2000 }, "geometry": { "type": "Point", "coordinates": [ -120.19330351698602, 34.466584168280988 ] } },
{ "type": "Feature", "properties": { "Count": 1, "year": 2000 }, "geometry": { "type": "Point", "coordinates": [ -120.163105197184976, 34.467065157898759 ] } },
{ "type": "Feature", "properties": { "Count": 1, "year": 2000 }, "geometry": { "type": "Point", "coordinates": [ -120.141871813697307, 34.469293135858862 ] } },
{ "type": "Feature", "properties": { "Count": 1, "year": 2001 }, "geometry": { "type": "Point", "coordinates": [ -122.453007025529388, 37.456579624184862 ] } },
{ "type": "Feature", "properties": { "Count": 1, "year": 2001 }, "geometry": { "type": "Point", "coordinates": [ -120.278786971118151, 34.463870982437697 ] } },
{ "type": "Feature", "properties": { "Count": 1, "year": 2001 }, "geometry": { "type": "Point", "coordinates": [ -119.85457867593577, 34.403835283276557 ] } },
{ "type": "Feature", "properties": { "Count": 1, "year": 2001 }, "geometry": { "type": "Point", "coordinates": [ -119.71467515517196, 34.392495847010132 ] } },
{ "type": "Feature", "properties": { "Count": 1, "year": 2001 }, "geometry": { "type": "Point", "coordinates": [ -119.507585389888561, 34.38267793501371 ] } },
{ "type": "Feature", "properties": { "Count": 1, "year": 2002 }, "geometry": { "type": "Point", "coordinates": [ -122.432231380641767, 37.399806193988766 ] } },
{ "type": "Feature", "properties": { "Count": 1, "year": 2002 }, "geometry": { "type": "Point", "coordinates": [ -122.413584367529936, 37.369605559167312 ] } },
{ "type": "Feature", "properties": { "Count": 1, "year": 2002 }, "geometry": { "type": "Point", "coordinates": [ -122.413027412530468, 37.365470499580077 ] } },
{ "type": "Feature", "properties": { "Count": 1, "year": 2002 }, "geometry": { "type": "Point", "coordinates": [ -122.409426238711887, 37.34860218972586 ] } },
{ "type": "Feature", "properties": { "Count": 1, "year": 2002 }, "geometry": { "type": "Point", "coordinates": [ -122.409128697540098, 37.344081857285602 ] } },
{ "type": "Feature", "properties": { "Count": 2, "year": 2002 }, "geometry": { "type": "Point", "coordinates": [ -122.409525481860413, 37.335388334325138 ] } },
{ "type": "Feature", "properties": { "Count": 2, "year": 2002 }, "geometry": { "type": "Point", "coordinates": [ -122.410022044509532, 37.205065741087786 ] } },
{ "type": "Feature", "properties": { "Count": 1, "year": 2002 }, "geometry": { "type": "Point", "coordinates": [ -119.768686375624654, 34.406438549133163 ] } },
{ "type": "Feature", "properties": { "Count": 1, "year": 2003 }, "geometry": { "type": "Point", "coordinates": [ -120.322429418298725, 34.460505979284868 ] } },
{ "type": "Feature", "properties": { "Count": 1, "year": 2003 }, "geometry": { "type": "Point", "coordinates": [ -120.29407720179951, 34.467605317300951 ] } },
{ "type": "Feature", "properties": { "Count": 1, "year": 2004 }, "geometry": { "type": "Point", "coordinates": [ -122.462147404245172, 37.482343795150548 ] } },
{ "type": "Feature", "properties": { "Count": 1, "year": 2004 }, "geometry": { "type": "Point", "coordinates": [ -122.403338496863569, 37.190024709761936 ] } },
{ "type": "Feature", "properties": { "Count": 1, "year": 2004 }, "geometry": { "type": "Point", "coordinates": [ -120.105073609242794, 34.462022914145678 ] } },
{ "type": "Feature", "properties": { "Count": 2, "year": 2004 }, "geometry": { "type": "Point", "coordinates": [ -119.962276813945635, 34.434746749209495 ] } },
{ "type": "Feature", "properties": { "Count": 1, "year": 2005 }, "geometry": { "type": "Point", "coordinates": [ -122.49145335578541, 37.485537145592851 ] } },
{ "type": "Feature", "properties": { "Count": 1, "year": 2005 }, "geometry": { "type": "Point", "coordinates": [ -120.307917573443817, 34.463103904050271 ] } },
{ "type": "Feature", "properties": { "Count": 1, "year": 2005 }, "geometry": { "type": "Point", "coordinates": [ -120.298365097042335, 34.465144837151492 ] } },
{ "type": "Feature", "properties": { "Count": 1, "year": 2005 }, "geometry": { "type": "Point", "coordinates": [ -120.227972842391026, 34.466278598852 ] } },
{ "type": "Feature", "properties": { "Count": 1, "year": 2006 }, "geometry": { "type": "Point", "coordinates": [ -122.409128697540098, 37.344081857285602 ] } },
{ "type": "Feature", "properties": { "Count": 1, "year": 2006 }, "geometry": { "type": "Point", "coordinates": [ -122.419696259487552, 37.258085063238745 ] } },
{ "type": "Feature", "properties": { "Count": 1, "year": 2006 }, "geometry": { "type": "Point", "coordinates": [ -120.120424702012741, 34.467767537839279 ] } },
{ "type": "Feature", "properties": { "Count": 1, "year": 2007 }, "geometry": { "type": "Point", "coordinates": [ -122.522879575939569, 37.523301392173089 ] } },
{ "type": "Feature", "properties": { "Count": 4, "year": 2007 }, "geometry": { "type": "Point", "coordinates": [ -122.50763590849985, 37.503935136864797 ] } },
{ "type": "Feature", "properties": { "Count": 3, "year": 2007 }, "geometry": { "type": "Point", "coordinates": [ -122.504729096450149, 37.49984598113469 ] } },
{ "type": "Feature", "properties": { "Count": 1, "year": 2007 }, "geometry": { "type": "Point", "coordinates": [ -122.501387305742213, 37.490645108709764 ] } },
{ "type": "Feature", "properties": { "Count": 1, "year": 2007 }, "geometry": { "type": "Point", "coordinates": [ -122.462147404245172, 37.482343795150548 ] } },
{ "type": "Feature", "properties": { "Count": 1, "year": 2007 }, "geometry": { "type": "Point", "coordinates": [ -122.410845338192459, 37.356876125303152 ] } },
{ "type": "Feature", "properties": { "Count": 1, "year": 2007 }, "geometry": { "type": "Point", "coordinates": [ -122.410776833403148, 37.31843234471711 ] } },
{ "type": "Feature", "properties": { "Count": 2, "year": 2007 }, "geometry": { "type": "Point", "coordinates": [ -122.411051521701935, 37.314362143765848 ] } },
{ "type": "Feature", "properties": { "Count": 1, "year": 2007 }, "geometry": { "type": "Point", "coordinates": [ -122.411715348443281, 37.305271901305417 ] } },
{ "type": "Feature", "properties": { "Count": 3, "year": 2007 }, "geometry": { "type": "Point", "coordinates": [ -122.412875088365467, 37.301003347998382 ] } },
{ "type": "Feature", "properties": { "Count": 1, "year": 2007 }, "geometry": { "type": "Point", "coordinates": [ -122.418223864976923, 37.229643304427739 ] } },
{ "type": "Feature", "properties": { "Count": 1, "year": 2007 }, "geometry": { "type": "Point", "coordinates": [ -120.188496788766713, 34.465798412775534 ] } },
{ "type": "Feature", "properties": { "Count": 1, "year": 2007 }, "geometry": { "type": "Point", "coordinates": [ -120.178776585213924, 34.466862802735697 ] } },
{ "type": "Feature", "properties": { "Count": 1, "year": 2007 }, "geometry": { "type": "Point", "coordinates": [ -120.120424702012741, 34.467767537839279 ] } },
{ "type": "Feature", "properties": { "Count": 1, "year": 2007 }, "geometry": { "type": "Point", "coordinates": [ -120.07926986152934, 34.457274030126705 ] } },
{ "type": "Feature", "properties": { "Count": 1, "year": 2007 }, "geometry": { "type": "Point", "coordinates": [ -120.042815195800642, 34.457839020049761 ] } },
{ "type": "Feature", "properties": { "Count": 1, "year": 2007 }, "geometry": { "type": "Point", "coordinates": [ -120.026869074346024, 34.455439823261372 ] } },
{ "type": "Feature", "properties": { "Count": 1, "year": 2007 }, "geometry": { "type": "Point", "coordinates": [ -120.001607124534985, 34.454158416311657 ] } },
{ "type": "Feature", "properties": { "Count": 1, "year": 2007 }, "geometry": { "type": "Point", "coordinates": [ -119.993557879396207, 34.447803464200135 ] } },
{ "type": "Feature", "properties": { "Count": 24, "year": 2007 }, "geometry": { "type": "Point", "coordinates": [ -119.957851684520449, 34.432820466111295 ] } },
{ "type": "Feature", "properties": { "Count": 5, "year": 2007 }, "geometry": { "type": "Point", "coordinates": [ -119.953457085919169, 34.431412968192795 ] } },
{ "type": "Feature", "properties": { "Count": 1, "year": 2007 }, "geometry": { "type": "Point", "coordinates": [ -119.918475916831909, 34.42585962225224 ] } },
{ "type": "Feature", "properties": { "Count": 1, "year": 2007 }, "geometry": { "type": "Point", "coordinates": [ -119.710081957664528, 34.39162985856418 ] } },
{ "type": "Feature", "properties": { "Count": 2, "year": 2008 }, "geometry": { "type": "Point", "coordinates": [ -122.525252034386924, 37.538174256412894 ] } },
{ "type": "Feature", "properties": { "Count": 1, "year": 2008 }, "geometry": { "type": "Point", "coordinates": [ -122.504561255348477, 37.495024280672133 ] } },
{ "type": "Feature", "properties": { "Count": 2, "year": 2008 }, "geometry": { "type": "Point", "coordinates": [ -122.439426182480901, 37.417002637003286 ] } },
{ "type": "Feature", "properties": { "Count": 4, "year": 2008 }, "geometry": { "type": "Point", "coordinates": [ -119.864603785546379, 34.404174589101117 ] } },
{ "type": "Feature", "properties": { "Count": 1, "year": 2008 }, "geometry": { "type": "Point", "coordinates": [ -119.859568311261526, 34.402858641345013 ] } },
{ "type": "Feature", "properties": { "Count": 1, "year": 2008 }, "geometry": { "type": "Point", "coordinates": [ -119.85457867593577, 34.403835283276557 ] } },
{ "type": "Feature", "properties": { "Count": 1, "year": 2008 }, "geometry": { "type": "Point", "coordinates": [ -119.844744270539309, 34.402328696693161 ] } },
{ "type": "Feature", "properties": { "Count": 1, "year": 2008 }, "geometry": { "type": "Point", "coordinates": [ -119.8180718995484, 34.409340514792348 ] } },
{ "type": "Feature", "properties": { "Count": 1, "year": 2008 }, "geometry": { "type": "Point", "coordinates": [ -119.481605630424269, 34.372033529282596 ] } },
{ "type": "Feature", "properties": { "Count": 1, "year": 2008 }, "geometry": { "type": "Point", "coordinates": [ -119.4770260359698, 34.371012323000919 ] } },
{ "type": "Feature", "properties": { "Count": 1, "year": 2009 }, "geometry": { "type": "Point", "coordinates": [ -122.442195772511482, 37.420966076105159 ] } },
{ "type": "Feature", "properties": { "Count": 1, "year": 2009 }, "geometry": { "type": "Point", "coordinates": [ -119.864603785546379, 34.404174589101117 ] } },
{ "type": "Feature", "properties": { "Count": 1, "year": 2010 }, "geometry": { "type": "Point", "coordinates": [ -122.411715348443281, 37.305271901305417 ] } },
{ "type": "Feature", "properties": { "Count": 1, "year": 2010 }, "geometry": { "type": "Point", "coordinates": [ -122.413623178155632, 37.222040762207847 ] } },
{ "type": "Feature", "properties": { "Count": 1, "year": 2010 }, "geometry": { "type": "Point", "coordinates": [ -119.962276813945635, 34.434746749209495 ] } },
{ "type": "Feature", "properties": { "Count": 2, "year": 2010 }, "geometry": { "type": "Point", "coordinates": [ -119.94273007939033, 34.431363603216042 ] } },
{ "type": "Feature", "properties": { "Count": 1, "year": 2012 }, "geometry": { "type": "Point", "coordinates": [ -122.412974700066314, 37.213522741910346 ] } },
{ "type": "Feature", "properties": { "Count": 1, "year": 2012 }, "geometry": { "type": "Point", "coordinates": [ -119.953457085919169, 34.431412968192795 ] } },
{ "type": "Feature", "properties": { "Count": 1, "year": 2013 }, "geometry": { "type": "Point", "coordinates": [ -122.413623178155632, 37.222040762207847 ] } },
{ "type": "Feature", "properties": { "Count": 1, "year": 2013 }, "geometry": { "type": "Point", "coordinates": [ -119.948215639953034, 34.430848515954715 ] } },
{ "type": "Feature", "properties": { "Count": 1, "year": 2014 }, "geometry": { "type": "Point", "coordinates": [ -122.381715950989644, 37.177970434698523 ] } },
{ "type": "Feature", "properties": { "Count": 1, "year": 2014 }, "geometry": { "type": "Point", "coordinates": [ -120.283929497649211, 34.465251815133371 ] } },
{ "type": "Feature", "properties": { "Count": 1, "year": 2014 }, "geometry": { "type": "Point", "coordinates": [ -119.953457085919169, 34.431412968192795 ] } },
{ "type": "Feature", "properties": { "Count": 1, "year": 2016 }, "geometry": { "type": "Point", "coordinates": [ -119.948215639953034, 34.430848515954715 ] } },
{ "type": "Feature", "properties": { "Count": 3, "year": 2017 }, "geometry": { "type": "Point", "coordinates": [ -120.252334383696407, 34.462681128964434 ] } },
{ "type": "Feature", "properties": { "Count": 1, "year": 2017 }, "geometry": { "type": "Point", "coordinates": [ -120.223082225521765, 34.466946213694591 ] } },
{ "type": "Feature", "properties": { "Count": 1, "year": 2017 }, "geometry": { "type": "Point", "coordinates": [ -120.126047792348558, 34.467969647502159 ] } },
{ "type": "Feature", "properties": { "Count": 2, "year": 2017 }, "geometry": { "type": "Point", "coordinates": [ -120.120424702012741, 34.467767537839279 ] } },
{ "type": "Feature", "properties": { "Count": 1, "year": 2017 }, "geometry": { "type": "Point", "coordinates": [ -119.953457085919169, 34.431412968192795 ] } },
{ "type": "Feature", "properties": { "Count": 1, "year": 2017 }, "geometry": { "type": "Point", "coordinates": [ -119.869288295442743, 34.405143412197354 ] } }
]
}
